MOLNIYA 2-9             
1 07276U 74026A   22218.99401537  .00000177  00000+0  00000+0 0  9997
2 07276  64.2806 220.0886 6461742 280.7321  17.2580  2.45097449250621
MOLNIYA 2-10            
1 07376U 74056A   22218.61781579 -.00001022  00000+0  00000+0 0  9998
2 07376  64.1881  89.6164 6735312 286.3397  13.6292  2.01171859351367
MOLNIYA 1-S             
1 07392U 74060A   22218.81687154 -.00000038  00000+0  00000+0 0  9993
2 07392   4.9921 282.1835 0011851 209.9496 189.8410  1.00198661120031
MOLNIYA 1-29            
1 07780U 75036A   22218.02624161  .00000158  00000+0 -46592-1 0  9991
2 07780  63.4165 209.6805 6896798 288.7183  11.9606  2.00629562346614
MOLNIYA 2-14            
1 08195U 75081A   22218.16106843  .00001043  00000+0  00000+0 0  9994
2 08195  63.3826 182.6245 6799088 292.9354  11.4394  2.02059860343950
MOLNIYA 1-32            
1 08601U 76006A   22216.51877428 -.00000359  00000+0 -23463-2 0  9997
2 08601  63.4786 290.8913 7249992 283.7702  11.2557  2.00093862 53621
MOLNIYA 1-36            
1 09880U 77021A   22218.20635561  .00000759  00000+0  00000+0 0  9994
2 09880  63.4772 262.0284 7177628 289.6877  10.2802  2.00893436230367
MOLNIYA 3-8             
1 10455U 77105A   22218.41441509 -.00000283  00000+0 -18282-2 0  9995
2 10455  63.3824 350.2740 7371098 282.2391  10.8125  2.00846693328149
MOLNIYA 1-40            
1 10925U 78055A   22217.58937436  .00000507  00000+0  00000+0 0  9991
2 10925  63.3450  41.1981 7261893 280.6622  11.7838  2.00690130323665
MOLNIYA 3-10            
1 11057U 78095A   22218.36311314 -.00000024  00000+0  19271-3 0  9999
2 11057  63.1674  20.8586 5793530 310.6880  11.7434  4.09853114385775
MOLNIYA 3-13            
1 11896U 80063A   22218.81566333  .00000412  00000+0  00000+0 0  9997
2 11896  62.6935 131.0597 7100467 276.3267  14.1185  2.00653988308150
MOLNIYA 1-49            
1 12156U 81009A   22215.83785940 -.00000941  00000+0 -14214-2 0  9998
2 12156  61.7017 158.3897 7264868 262.9418  17.3828  2.05712606222467
MOLNIYA 1-52            
1 13012U 81123A   22217.64612737 -.00000669  00000+0 -43534-2 0  9995
2 13012  61.7552 271.7533 7243471 255.4222  20.9084  2.00417852297564
MOLNIYA 1-53            
1 13070U 82015A   22218.94590765 -.00000939  00000+0  12511-2 0  9990
2 13070  62.6408 207.9682 7038660 282.8020  12.6434  2.00803502296260
MOLNIYA 3-20            
1 13875U 83015A   22219.43529570  .00001186  00000+0  17774-2 0  9995
2 13875  62.7269 344.7247 7402038 258.4898  18.0185  2.00449841224774
MOLNIYA 1-56            
1 13890U 83019A   22213.20638101 -.00000061  00000+0 -38678-3 0  9996
2 13890  63.0029  10.9745 7447278 264.4179  15.3271  1.99982893287498
MOLNIYA 1-63            
1 15429U 84124A   22215.32242936  .00001221  00000+0  00000+0 0  9997
2 15429  63.7472 163.3414 6636499 259.4455 263.4401  2.00775558275699
MOLNIYA 3-24            
1 15738U 85040A   22218.23353236 -.00000128  00000+0  00000+0 0  9993
2 15738  63.6701  73.5313 6812537 247.2983  30.6962  2.55627176305171
MOLNIYA 3-27            
1 16393U 85117A   22218.13308250 -.00000156  00000+0  00000+0 0  9992
2 16393  64.3990  75.0795 6987074 248.2029  27.9300  2.12396972275237
MOLNIYA 1-69            
1 17078U 86089A   22215.72226868  .00000054  00000+0  00000+0 0  9994
2 17078  63.9941 182.1246 6644553 257.8930  25.8363  2.00683581261771
MOLNIYA 3-31            
1 17328U 87008A   22217.80656121  .00000447  00000+0  00000+0 0  9990
2 17328  63.6962 122.9021 7041804 253.8383  23.8617  2.00594975256852
MOLNIYA 1-71            
1 18946U 88017A   22218.75118765 -.00000203  00000+0  00000+0 0  9991
2 18946  63.4210 116.9104 7155948 256.4453  21.2822  2.00654243252109
MOLNIYA 1-75            
1 19807U 89014A   22214.97395715  .00000136  00000+0  00000+0 0  9992
2 19807  64.0591 279.4998 6857047 266.8730  19.4888  2.00580974244934
MOLNIYA 1-80            
1 21118U 91012A   22218.32650545 -.00000983  00000+0  00000+0 0  9990
2 21118  65.1914 327.4897 6789832 277.0094  16.2563  2.05248301232008
MOLNIYA 3-40            
1 21196U 91022A   22218.58099970  .00000615  00000+0  00000+0 0  9995
2 21196  65.1078 321.0635 6820084 273.7914  17.1567  2.02991585230675
MOLNIYA 1-81            
1 21426U 91043A   22218.38067954  .00000045  00000+0  00000+0 0  9996
2 21426  64.1167 337.7177 7098387 266.7464  17.4693  2.00631701228163
MOLNIYA 3-41            
1 21706U 91065A   22217.82712716 -.00000864  00000+0  00000+0 0  9992
2 21706  64.1032 160.7067 6840675 255.4751  25.1285  2.04359717227873
MOLNIYA 3-42            
1 22178U 92067A   22215.97577958  .00000230  00000+0  00000+0 0  9996
2 22178  64.6763 210.9292 6428741 266.3326  23.5281  2.20435568 81105
MOLNIYA 1-86            
1 22671U 93035A   22219.53312463  .00000312  00000+0  32638-3 0  9991
2 22671  63.0907 207.2641 4859393   7.8142 357.6341  5.62680738355120
MOLNIYA 1-87            
1 22949U 93079A   22217.84660559  .00001237  00000+0  00000+0 0  9992
2 22949  63.9744  86.6219 6877270 284.1374  13.3465  2.02856304 75935
MOLNIYA 1-88            
1 23420U 94081A   22219.01818175  .00000110  00000+0  00000+0 0  9990
2 23420  64.2807 184.5389 5803527 282.1597  21.6118  3.34498056248636
MOLNIYA 3-47            
1 23642U 95042A   22215.31352620  .00001181  00000+0  00000+0 0  9990
2 23642  64.0802  68.7166 6928240 284.4144  12.9241  2.01934713197962
MOLNIYA 1-90            
1 24960U 97054A   22217.98547007  .00000077  00000+0 -16414-2 0  9992
2 24960  63.6389 151.4162 6114021 298.4106  13.7550  3.18689745209589
MOLNIYA 1-91            
1 25485U 98054A   22218.74997903  .00000168  00000+0  22925-2 0  9999
2 25485  63.0290 142.3619 6774800 291.9005  18.8251  2.36445120179571
MOLNIYA 3-50            
1 25847U 99036A   22218.36034084  .00000156  00000+0 -13746-2 0  9991
2 25847  63.2003 326.6748 7381583 282.0492  10.8478  2.00648203169111
